[{"OBJECT_NAME":"STARLINK-6313","OBJECT_ID":"2023-065S","EPOCH":"2026-03-09T09:45:21.962016","MEAN_MOTION":15.02539987,"ECCENTRICITY":0.00010001,"INCLINATION":43.0034,"RA_OF_ASC_NODE":211.7426,"ARG_OF_PERICENTER":282.4647,"MEAN_ANOMALY":77.6083,"EPHEMERIS_TYPE":0,"CLASSIFICATION_TYPE":"U","NORAD_CAT_ID":56519,"ELEMENT_SET_NO":999,"REV_AT_EPOCH":15658,"BSTAR":0.00013838622,"MEAN_MOTION_DOT":1.666e-5,"MEAN_MOTION_DDOT":0},{"OBJECT_NAME":"ELECTRON KICK STAGE R\/B","OBJECT_ID":"2024-219F","EPOCH":"2026-03-09T23:20:11.125536","MEAN_MOTION":14.96109186,"ECCENTRICITY":0.00508226,"INCLINATION":97.9798,"RA_OF_ASC_NODE":244.6751,"ARG_OF_PERICENTER":283.2555,"MEAN_ANOMALY":76.3,"EPHEMERIS_TYPE":0,"CLASSIFICATION_TYPE":"U","NORAD_CAT_ID":62086,"ELEMENT_SET_NO":999,"REV_AT_EPOCH":7010,"BSTAR":0.00053960044,"MEAN_MOTION_DOT":6.166e-5,"MEAN_MOTION_DDOT":0}]
